{"spkid": "50591618", "covariance": {"labels": ["e", "q", "tp", "node", "peri", "i"], "elements": [{"title": "eccentricity", "value": ".7299790682668844", "units": null, "name": "e", "sigma": 1.67791978607089e-08, "label": "e"}, {"label": "q", "units": "au", "title": "perihelion distance", "value": ".7592337125439282", "name": "q", "sigma": 4.66021801221186e-08}, {"label": "tp", "units": "TDB", "value": "2459418.672269221149", "title": "time of perihelion passage", "sigma": 4.55817475673153e-06, "name": "tp"}, {"name": "om", "sigma": 0.000152786824853038, "value": "182.0839107297975", "title": "longitude of the ascending node", "units": "deg", "label": "node"}, {"label": "peri", "sigma": 0.000150737083979328, "name": "w", "value": "348.2163262993045", "title": "argument of perihelion", "units": "deg"}, {"label": "i", "units": "deg", "title": "inclination", "value": "3.060601291460227", "sigma": 3.48126988745798e-06, "name": "i"}], "data": [["2.815414808488172E-16", "-7.818419161849753E-16", "2.268349591291835E-14", "7.441332245055693E-13", "-7.084265064983402E-13", "-3.997673073815611E-15"], ["-7.818419161849753E-16", "2.171763192134383E-15", "-6.497201339328E-14", "-2.125919443693503E-12", "2.025742287837709E-12", "9.717629891570874E-15"], ["2.268349591291835E-14", "-6.497201339328E-14", "2.077695711290452E-11", "3.263900175428715E-10", "-3.077409382277835E-10", "5.342375247582302E-12"], ["7.441332245055693E-13", "-2.125919443693503E-12", "3.263900175428715E-10", "2.334381384867303E-8", "-2.301885655534604E-8", "3.739262433474641E-10"], ["-7.084265064983402E-13", "2.025742287837709E-12", "-3.077409382277835E-10", "-2.301885655534604E-8", "2.272166848659108E-8", "-3.721996731430944E-10"], ["-3.997673073815611E-15", "9.717629891570874E-15", "5.342375247582302E-12", "3.739262433474641E-10", "-3.721996731430944E-10", "1.211924002932169E-11"]], "epoch": "2459741.5"}, "elements": [{"sigma": "1.6677E-8", "name": "e", "units": null, "value": ".7292448779798557", "title": "eccentricity", "label": "e"}, {"units": "au", "title": "semi-major axis", "value": "2.816527060627229", "sigma": "4.618E-9", "name": "a", "label": "a"}, {"units": "au", "title": "perihelion distance", "value": ".7625891279731637", "sigma": "4.5999E-8", "name": "q", "label": "q"}, {"label": "i", "value": "3.063293076237875", "title": "inclination; angle with respect to x-y ecliptic plane", "units": "deg", "sigma": "3.4911E-6", "name": "i"}, {"label": "node", "title": "longitude of the ascending node", "value": "182.0018378162497", "units": "deg", "name": "om", "sigma": ".00015245"}, {"name": "w", "sigma": ".00015039", "units": "deg", "title": "argument of perihelion", "value": "348.3008223995517", "label": "peri"}, {"name": "ma", "sigma": "1.1334E-6", "units": "deg", "title": "mean anomaly", "value": "12.39851845556389", "label": "M"}, {"label": "tp", "title": "time of perihelion passage", "value": "2461141.038397239857", "units": "TDB", "sigma": "5.335E-6", "name": "tp"}, {"title": "sidereal orbital period", "value": "1726.510878728844", "units": "d", "sigma": "4.2462E-6", "name": "per", "label": "period"}, {"label": "n", "units": "deg/d", "value": ".2085130215136858", "title": "mean motion", "sigma": "5.1282E-10", "name": "n"}, {"label": "Q", "sigma": "7.9856E-9", "name": "ad", "units": "au", "value": "4.870464993281294", "title": "aphelion distance"}], "epoch": "2461200.5"}